QIANFAN-1               
1 60379U 24140A   26003.24540223  .00000208  00000+0  30305-3 0  9992
2 60379  88.9777 297.0567 0017943 147.0475 213.1799 13.50983319 70259
QIANFAN-2               
1 60380U 24140B   26003.27432398  .00000205  00000+0  29913-3 0  9990
2 60380  88.9763 296.8901 0014013 119.0490 241.2067 13.50987139 70317
QIANFAN-3               
1 60381U 24140C   26003.28248429  .00000206  00000+0  29959-3 0  9993
2 60381  88.9755 297.0202 0014806 131.1212 229.1220 13.50987678 70227
QIANFAN-4               
1 60382U 24140D   26003.25772760  .00000202  00000+0  29368-3 0  9991
2 60382  88.9780 296.9259 0014187 121.5846 238.6692 13.50983387 70348
QIANFAN-5               
1 60383U 24140E   26003.30721211  .00000196  00000+0  28398-3 0  9997
2 60383  88.9755 297.0430 0015748 142.2385 217.9874 13.50985381 70210
QIANFAN-6               
1 60384U 24140F   26003.25373021  .00000195  00000+0  28329-3 0  9997
2 60384  88.9782 296.8006 0014155 127.1153 233.1293 13.50985644 70401
QIANFAN-7               
1 60385U 24140G   26003.26204081  .00001429  00000+0  57355-3 0  9990
2 60385  88.9795 291.1960 0014611 338.8636  21.1953 14.27689782 73463
QIANFAN-8               
1 60386U 24140H   26003.26202204  .00000189  00000+0  27338-3 0  9996
2 60386  88.9783 297.0375 0017541 130.4912 229.7771 13.50987070 70258
